[{"OBJECT_NAME":"STARLINK-36840","OBJECT_ID":"2026-034A","EPOCH":"2026-03-04T12:00:00.999648","MEAN_MOTION":15.80798157,"ECCENTRICITY":0.00013364,"INCLINATION":53.1591,"RA_OF_ASC_NODE":237.3656,"ARG_OF_PERICENTER":110.2764,"MEAN_ANOMALY":338.6977,"EPHEMERIS_TYPE":0,"CLASSIFICATION_TYPE":"U","NORAD_CAT_ID":67850,"ELEMENT_SET_NO":999,"REV_AT_EPOCH":307,"BSTAR":0.00063763613,"MEAN_MOTION_DOT":0.00126571,"MEAN_MOTION_DDOT":0},{"OBJECT_NAME":"STARLINK-36348","OBJECT_ID":"2026-034B","EPOCH":"2026-03-04T12:00:00.999648","MEAN_MOTION":15.80800634,"ECCENTRICITY":0.00010429,"INCLINATION":53.1593,"RA_OF_ASC_NODE":237.3565,"ARG_OF_PERICENTER":83.9554,"MEAN_ANOMALY":9.2979,"EPHEMERIS_TYPE":0,"CLASSIFICATION_TYPE":"U","NORAD_CAT_ID":67851,"ELEMENT_SET_NO":999,"REV_AT_EPOCH":302,"BSTAR":0.000397046,"MEAN_MOTION_DOT":0.00078114,"MEAN_MOTION_DDOT":0},{"OBJECT_NAME":"STARLINK-36276","OBJECT_ID":"2026-034C","EPOCH":"2026-03-04T12:00:00.999648","MEAN_MOTION":15.80767534,"ECCENTRICITY":0.00010519,"INCLINATION":53.1592,"RA_OF_ASC_NODE":237.3474,"ARG_OF_PERICENTER":46.1811,"MEAN_ANOMALY":51.3528,"EPHEMERIS_TYPE":0,"CLASSIFICATION_TYPE":"U","NORAD_CAT_ID":67852,"ELEMENT_SET_NO":999,"REV_AT_EPOCH":302,"BSTAR":0.00067816279,"MEAN_MOTION_DOT":0.00134595,"MEAN_MOTION_DDOT":0},{"OBJECT_NAME":"STARLINK-36785","OBJECT_ID":"2026-034D","EPOCH":"2026-03-04T12:00:00.999648","MEAN_MOTION":15.80810194,"ECCENTRICITY":0.00010024,"INCLINATION":53.1593,"RA_OF_ASC_NODE":237.3385,"ARG_OF_PERICENTER":56.5397,"MEAN_ANOMALY":45.2665,"EPHEMERIS_TYPE":0,"CLASSIFICATION_TYPE":"U","NORAD_CAT_ID":67853,"ELEMENT_SET_NO":999,"REV_AT_EPOCH":302,"BSTAR":0.00059016137,"MEAN_MOTION_DOT":0.00117029,"MEAN_MOTION_DDOT":0},{"OBJECT_NAME":"STARLINK-36608","OBJECT_ID":"2026-034E","EPOCH":"2026-03-04T12:00:00.999648","MEAN_MOTION":15.8082288,"ECCENTRICITY":0.0001146,"INCLINATION":53.1594,"RA_OF_ASC_NODE":237.3297,"ARG_OF_PERICENTER":126.4095,"MEAN_ANOMALY":339.6487,"EPHEMERIS_TYPE":0,"CLASSIFICATION_TYPE":"U","NORAD_CAT_ID":67854,"ELEMENT_SET_NO":999,"REV_AT_EPOCH":302,"BSTAR":0.00017775248,"MEAN_MOTION_DOT":0.00034443,"MEAN_MOTION_DDOT":0},{"OBJECT_NAME":"STARLINK-36838","OBJECT_ID":"2026-034F","EPOCH":"2026-03-04T12:00:00.999648","MEAN_MOTION":15.80815331,"ECCENTRICITY":0.00011619,"INCLINATION":53.1593,"RA_OF_ASC_NODE":237.3204,"ARG_OF_PERICENTER":92.2183,"MEAN_ANOMALY":18.1206,"EPHEMERIS_TYPE":0,"CLASSIFICATION_TYPE":"U","NORAD_CAT_ID":67855,"ELEMENT_SET_NO":999,"REV_AT_EPOCH":302,"BSTAR":0.00029940634,"MEAN_MOTION_DOT":0.00058639,"MEAN_MOTION_DDOT":0},{"OBJECT_NAME":"STARLINK-36843","OBJECT_ID":"2026-034G","EPOCH":"2026-03-04T12:00:00.999648","MEAN_MOTION":15.80803354,"ECCENTRICITY":7.955e-5,"INCLINATION":53.1594,"RA_OF_ASC_NODE":237.3032,"ARG_OF_PERICENTER":110.7989,"MEAN_ANOMALY":8.0778,"EPHEMERIS_TYPE":0,"CLASSIFICATION_TYPE":"U","NORAD_CAT_ID":67856,"ELEMENT_SET_NO":999,"REV_AT_EPOCH":302,"BSTAR":0.00039250199,"MEAN_MOTION_DOT":0.00077213,"MEAN_MOTION_DDOT":0},{"OBJECT_NAME":"STARLINK-36828","OBJECT_ID":"2026-034H","EPOCH":"2026-03-04T12:00:00.999648","MEAN_MOTION":15.80772275,"ECCENTRICITY":0.00012811,"INCLINATION":53.1591,"RA_OF_ASC_NODE":237.3122,"ARG_OF_PERICENTER":76.3746,"MEAN_ANOMALY":38.247,"EPHEMERIS_TYPE":0,"CLASSIFICATION_TYPE":"U","NORAD_CAT_ID":67857,"ELEMENT_SET_NO":999,"REV_AT_EPOCH":302,"BSTAR":0.00065445327,"MEAN_MOTION_DOT":0.00129822,"MEAN_MOTION_DDOT":0},{"OBJECT_NAME":"STARLINK-36837","OBJECT_ID":"2026-034J","EPOCH":"2026-03-04T12:00:00.999648","MEAN_MOTION":15.80784726,"ECCENTRICITY":9.579e-5,"INCLINATION":53.1595,"RA_OF_ASC_NODE":237.2937,"ARG_OF_PERICENTER":98.5636,"MEAN_ANOMALY":24.5858,"EPHEMERIS_TYPE":0,"CLASSIFICATION_TYPE":"U","NORAD_CAT_ID":67858,"ELEMENT_SET_NO":999,"REV_AT_EPOCH":302,"BSTAR":0.00060525258,"MEAN_MOTION_DOT":0.00119939,"MEAN_MOTION_DDOT":0},{"OBJECT_NAME":"STARLINK-36393","OBJECT_ID":"2026-034K","EPOCH":"2026-03-04T12:00:00.999648","MEAN_MOTION":15.80835841,"ECCENTRICITY":0.00014613,"INCLINATION":53.1596,"RA_OF_ASC_NODE":237.2849,"ARG_OF_PERICENTER":110.9238,"MEAN_ANOMALY":16.4922,"EPHEMERIS_TYPE":0,"CLASSIFICATION_TYPE":"U","NORAD_CAT_ID":67859,"ELEMENT_SET_NO":999,"REV_AT_EPOCH":302,"BSTAR":2.1203427e-5,"MEAN_MOTION_DOT":3.48e-5,"MEAN_MOTION_DDOT":0},{"OBJECT_NAME":"STARLINK-35873","OBJECT_ID":"2026-034L","EPOCH":"2026-03-04T12:00:00.999648","MEAN_MOTION":15.80781096,"ECCENTRICITY":0.00011671,"INCLINATION":53.1596,"RA_OF_ASC_NODE":237.276,"ARG_OF_PERICENTER":119.1035,"MEAN_ANOMALY":12.5916,"EPHEMERIS_TYPE":0,"CLASSIFICATION_TYPE":"U","NORAD_CAT_ID":67860,"ELEMENT_SET_NO":999,"REV_AT_EPOCH":316,"BSTAR":0.00059111317,"MEAN_MOTION_DOT":0.00117062,"MEAN_MOTION_DDOT":0},{"OBJECT_NAME":"STARLINK-36325","OBJECT_ID":"2026-034M","EPOCH":"2026-03-04T12:00:00.999648","MEAN_MOTION":15.80804164,"ECCENTRICITY":8.33e-5,"INCLINATION":53.1595,"RA_OF_ASC_NODE":237.267,"ARG_OF_PERICENTER":107.8186,"MEAN_ANOMALY":28.1469,"EPHEMERIS_TYPE":0,"CLASSIFICATION_TYPE":"U","NORAD_CAT_ID":67861,"ELEMENT_SET_NO":999,"REV_AT_EPOCH":302,"BSTAR":0.0003443017,"MEAN_MOTION_DOT":0.00067572,"MEAN_MOTION_DDOT":0},{"OBJECT_NAME":"STARLINK-36332","OBJECT_ID":"2026-034N","EPOCH":"2026-03-04T12:00:00.999648","MEAN_MOTION":15.8076468,"ECCENTRICITY":0.00011815,"INCLINATION":53.1595,"RA_OF_ASC_NODE":237.2587,"ARG_OF_PERICENTER":102.06,"MEAN_ANOMALY":38.1912,"EPHEMERIS_TYPE":0,"CLASSIFICATION_TYPE":"U","NORAD_CAT_ID":67862,"ELEMENT_SET_NO":999,"REV_AT_EPOCH":302,"BSTAR":0.00078231959,"MEAN_MOTION_DOT":0.00155739,"MEAN_MOTION_DDOT":0},{"OBJECT_NAME":"STARLINK-36835","OBJECT_ID":"2026-034P","EPOCH":"2026-03-04T12:00:00.999648","MEAN_MOTION":15.80775496,"ECCENTRICITY":0.00014086,"INCLINATION":53.1596,"RA_OF_ASC_NODE":237.2485,"ARG_OF_PERICENTER":100.788,"MEAN_ANOMALY":43.7228,"EPHEMERIS_TYPE":0,"CLASSIFICATION_TYPE":"U","NORAD_CAT_ID":67863,"ELEMENT_SET_NO":999,"REV_AT_EPOCH":302,"BSTAR":0.00072057175,"MEAN_MOTION_DOT":0.00143254,"MEAN_MOTION_DDOT":0},{"OBJECT_NAME":"STARLINK-36831","OBJECT_ID":"2026-034Q","EPOCH":"2026-03-04T12:00:00.999648","MEAN_MOTION":15.80757759,"ECCENTRICITY":0.00015821,"INCLINATION":53.1595,"RA_OF_ASC_NODE":237.2402,"ARG_OF_PERICENTER":58.7523,"MEAN_ANOMALY":90.0503,"EPHEMERIS_TYPE":0,"CLASSIFICATION_TYPE":"U","NORAD_CAT_ID":67864,"ELEMENT_SET_NO":999,"REV_AT_EPOCH":302,"BSTAR":0.0007612739,"MEAN_MOTION_DOT":0.00151407,"MEAN_MOTION_DDOT":0},{"OBJECT_NAME":"STARLINK-36738","OBJECT_ID":"2026-034R","EPOCH":"2026-03-04T12:00:00.999648","MEAN_MOTION":15.8079201,"ECCENTRICITY":4.907e-5,"INCLINATION":53.1597,"RA_OF_ASC_NODE":237.2311,"ARG_OF_PERICENTER":117.8194,"MEAN_ANOMALY":35.2447,"EPHEMERIS_TYPE":0,"CLASSIFICATION_TYPE":"U","NORAD_CAT_ID":67865,"ELEMENT_SET_NO":999,"REV_AT_EPOCH":302,"BSTAR":0.00037927631,"MEAN_MOTION_DOT":0.00074526,"MEAN_MOTION_DDOT":0}]
