STARLINK-36840          
1 67850U 26034A   26063.50001157  .00126571  00000+0  63764-3 0  9997
2 67850  53.1591 237.3656 0001336 110.2764 338.6977 15.80798157  3072
STARLINK-36348          
1 67851U 26034B   26063.50001157  .00078114  00000+0  39705-3 0  9995
2 67851  53.1593 237.3565 0001042  83.9554   9.2979 15.80800634  3023
STARLINK-36276          
1 67852U 26034C   26063.50001157  .00134595  00000+0  67816-3 0  9996
2 67852  53.1592 237.3474 0001051  46.1811  51.3528 15.80767534  3028
STARLINK-36785          
1 67853U 26034D   26063.50001157  .00117029  00000+0  59016-3 0  9993
2 67853  53.1593 237.3385 0001002  56.5397  45.2665 15.80810194  3026
STARLINK-36608          
1 67854U 26034E   26063.50001157  .00034443  00000+0  17775-3 0  9998
2 67854  53.1594 237.3297 0001146 126.4095 339.6487 15.80822880  3028
STARLINK-36838          
1 67855U 26034F   26063.50001157  .00058639  00000+0  29941-3 0  9990
2 67855  53.1593 237.3204 0001161  92.2183  18.1206 15.80815331  3022
STARLINK-36843          
1 67856U 26034G   26063.50001157  .00077213  00000+0  39250-3 0  9994
2 67856  53.1594 237.3032 0000795 110.7989   8.0778 15.80803354  3029
STARLINK-36828          
1 67857U 26034H   26063.50001157  .00129822  00000+0  65445-3 0  9994
2 67857  53.1591 237.3122 0001281  76.3746  38.2470 15.80772275  3027
STARLINK-36837          
1 67858U 26034J   26063.50001157  .00119939  00000+0  60525-3 0  9997
2 67858  53.1595 237.2937 0000957  98.5636  24.5858 15.80784726  3020
STARLINK-36393          
1 67859U 26034K   26063.50001157  .00003480  00000+0  21203-4 0  9992
2 67859  53.1596 237.2849 0001461 110.9238  16.4922 15.80835841  3029
STARLINK-35873          
1 67860U 26034L   26063.50001157  .00117062  00000+0  59111-3 0  9994
2 67860  53.1596 237.2760 0001167 119.1035  12.5916 15.80781096  3169
STARLINK-36325          
1 67861U 26034M   26063.50001157  .00067572  00000+0  34430-3 0  9992
2 67861  53.1595 237.2670 0000833 107.8186  28.1469 15.80804164  3022
STARLINK-36332          
1 67862U 26034N   26063.50001157  .00155739  00000+0  78232-3 0  9994
2 67862  53.1595 237.2587 0001181 102.0600  38.1912 15.80764680  3027
STARLINK-36835          
1 67863U 26034P   26063.50001157  .00143254  00000+0  72057-3 0  9993
2 67863  53.1596 237.2485 0001408 100.7880  43.7228 15.80775496  3022
STARLINK-36831          
1 67864U 26034Q   26063.50001157  .00151407  00000+0  76127-3 0  9995
2 67864  53.1595 237.2402 0001582  58.7523  90.0503 15.80757759  3023
STARLINK-36738          
1 67865U 26034R   26063.50001157  .00074526  00000+0  37928-3 0  9998
2 67865  53.1597 237.2311 0000490 117.8194  35.2447 15.80792010  3020
